CALSPHERE 1             
1 00900U 64063C   17295.23714117  .00000285  00000-0  29705-3 0  9999
2 00900  90.1474  13.3743 0028737  92.2821 321.9456 13.72984303637442
CALSPHERE 2             
1 00902U 64063E   17294.75389043  .00000022  00000-0  18865-4 0  9998
2 00902  90.1553  15.7168 0019544  46.0912  84.3105 13.52653042428993
LCS 1                   
1 01361U 65034C   17294.84041463  .00000012  00000-0  43484-3 0  9991
2 01361  32.1379 120.7155 0011917 227.3952 132.5540  9.89292904896902
TEMPSAT 1               
1 01512U 65065E   17294.91335971  .00000029  00000-0  38191-4 0  9999
2 01512  89.8303 240.0918 0071529 121.2864 303.7808 13.33404878538886
CALSPHERE 4(A)          
1 01520U 65065H   17295.21767476  .00000051  00000-0  81700-4 0  9990
2 01520  90.0725 123.7343 0070151  16.6488  94.3910 13.35745845541217
OPS 5712 (P/L 160)      
1 02826U 67053A   17294.95166463  .00000709  00000-0  20671-3 0  9997
2 02826  69.9279 306.0958 0009152 242.9608 117.0591 14.48071741606532
OPS 5712 (P/L 153)      
1 02874U 67053H   17295.55308672 -.00000037  00000-0  11851-4 0  9993
2 02874  69.9755  43.6848 0009122 319.7817  40.2613 13.96298136566143
SURCAL 150B             
1 02909U 67053J   17295.51123073  .00001073  00000-0  23519-3 0  9991
2 02909  69.9501  11.9857 0007843 289.7779  70.2513 14.60399657615846
RIGIDSPHERE 2 (LCS 4)   
1 05398U 71067E   17294.91895220  .00000203  00000-0  65670-4 0  9998
2 05398  87.6204 131.5691 0061935 227.4223 132.1739 14.33626209420723
